Velocity uncertainty errors (vs Monte Carlo):
  Linearized Covariance Propagation (Cartesian):
    RMSE = 863.0753025130966 m/s, Min = 0.02739469883144352 m/s, Max = 2170.7011950825627 m/s
  Unscented Transform (Cartesian):
    RMSE = 1907.3908370363722 m/s, Min = 0.027394699918176002 m/s, Max = 4785.909825961545 m/s
  Eigen-based Sigma Points (Cartesian):
    RMSE = 58.211786861790976 m/s, Min = 0.016600235820078524 m/s, Max = 138.7018257972186 m/s
  Eigen-based Sigma Points (KS):
    RMSE = NaN m/s, Min = NaN m/s, Max = NaN m/s
  Linearized KS Sigma Points:
    RMSE = NaN m/s, Min = NaN m/s, Max = NaN m/s
  Linearized KS Dynamics:
    RMSE = 2593.246794013011 m/s, Min = 0.06762591883301639 m/s, Max = 3695.0063561865327 m/s

Generating plots...
  Saved plot to figs/test_error_propagation_comparison_orb1_pos100000m_orbits3.0.png

================================================================================
SCENARIO COMPLETE
================================================================================

================================================================================
ORBIT: Molniya orbit (e=0.74, 26600 km semi-major axis)
================================================================================
Orbit parameters:
  Semi-major axis: 26600.0 km
  Eccentricity: 0.74
  Inclination: 63.4 deg
  Argument of periapsis: 270.0 deg
  RAAN: 0.0 deg
  Mean anomaly: 0.0 deg

Initial conditions:
  Position: [-1.2704485894354641e-9, -3.0967018514929316e6, -6.1839707019810695e6]
  Velocity: [10014.194438691926, -8.236876216803684e-13, -1.644866171924234e-12]
  Radius: 6915.999999999999 km
  Speed: 10.014194438691925 km/s

--------------------------------------------------------------------------------
POSITION UNCERTAINTY SCENARIO: σ_pos = 1000.0 m
--------------------------------------------------------------------------------
  Position uncertainty: 1000.0 m (1-sigma)
  Velocity uncertainty: 0.8321694852758493 m/s (1-sigma)

================================================================================
NUM ORBITS: 3.0
================================================================================

Propagation parameters:
  Orbital period: 43175.108298393 s (11.993085638442501 hours)
  Time step: 30.0 s
  Number of steps: 4318
  Total propagation time: 35.979256915327504 hours

================================================================================
1. MONTE CARLO (Ground Truth)
================================================================================
  Propagating 5000 Monte Carlo samples...
    Sample 1000 / 5000
    Sample 2000 / 5000
    Sample 3000 / 5000
    Sample 4000 / 5000
    Sample 5000 / 5000
  Completed: 4318 states

================================================================================
2. LINEARIZED COVARIANCE PROPAGATION (Cartesian Coordinates)
================================================================================
  Completed: 4318 states

================================================================================
3. UNSCENTED TRANSFORM (Cartesian Coordinates)
================================================================================
  Propagating 13 sigma points via Unscented Transform...
  Completed: 4318 states

================================================================================
4. EIGEN-BASED SIGMA POINTS (Cartesian Coordinates)
================================================================================
  Propagating 12 sigma points via Eigen-based method...
  Completed: 4318 states

================================================================================
5. EIGEN-BASED SIGMA POINTS (KS Coordinates)
================================================================================
  Propagating 12 sigma points via Eigen-based method (KS dynamics)...
  Completed: 4318 states

================================================================================
6. LINEARIZED KS SIGMA POINTS
================================================================================
  Propagating 12 sigma points (deputies) via linearized KS relative dynamics...
    Sigma point 6 / 12
    Sigma point 12 / 12
  Completed: 4318 states

================================================================================
7. LINEARIZED KS DYNAMICS
================================================================================
 Total orbital energy initial state deviation (σ_h): 11785.358666076778 m²/s²
  Completed: 4318 states

================================================================================
COMPARISON AGAINST MONTE CARLO GROUND TRUTH
================================================================================

Position errors (vs Monte Carlo):
  Linearized Covariance Propagation (Cartesian):
    RMSE = 31491.370560247262 m, Min = 11.550528878053557 m, Max = 239633.8936319107 m
  Unscented Transform (Cartesian):
    RMSE = 12653.452913649022 m, Min = 11.549692238541033 m, Max = 42976.22201585945 m
  Eigen-based Sigma Points (Cartesian):
    RMSE = 12706.575580984194 m, Min = 11.550528760963298 m, Max = 46939.87380525241 m
  Eigen-based Sigma Points (KS):
    RMSE = 12706.574462204713 m, Min = 11.55052876931136 m, Max = 46939.856170372084 m
  Linearized KS Sigma Points:
    RMSE = 20919.993549517636 m, Min = 11.550534327801277 m, Max = 139372.72160549933 m
  Linearized KS Dynamics:
    RMSE = 31491.370232148045 m, Min = 11.550528883638878 m, Max = 239633.8888434633 m

Velocity errors (vs Monte Carlo):
  Linearized Covariance Propagation (Cartesian):
    RMSE = 30.545165169274092 m/s, Min = 0.015070318433801062 m/s, Max = 268.62985538143374 m/s
  Unscented Transform (Cartesian):
    RMSE = 5.150415253214249 m/s, Min = 0.015069393510348939 m/s, Max = 46.74168291050908 m/s
  Eigen-based Sigma Points (Cartesian):
    RMSE = 4.715867633717689 m/s, Min = 0.015070318433801057 m/s, Max = 31.550837987816994 m/s
  Eigen-based Sigma Points (KS):
    RMSE = 4.7158676606209875 m/s, Min = 0.015070318433784381 m/s, Max = 31.550839199876794 m/s
  Linearized KS Sigma Points:
    RMSE = 15.865126438346476 m/s, Min = 0.015070318433832861 m/s, Max = 144.18594223193588 m/s
  Linearized KS Dynamics:
    RMSE = 30.545165107824804 m/s, Min = 0.015070318433757116 m/s, Max = 268.6298521490373 m/s

Position uncertainty errors (vs Monte Carlo):
  Linearized Covariance Propagation (Cartesian):
    RMSE = 7168.279791386137 m, Min = 0.04707823693206592 m, Max = 53132.400472775334 m
  Unscented Transform (Cartesian):
    RMSE = 8624.874350360096 m, Min = 0.04707131029908851 m, Max = 68203.20628546225 m
  Eigen-based Sigma Points (Cartesian):
    RMSE = 6268.4412479602925 m, Min = 0.047003491328268865 m, Max = 22725.19127084012 m
  Eigen-based Sigma Points (KS):
    RMSE = 6268.439416975613 m, Min = 0.04700359816524724 m, Max = 22725.185104758944 m
  Linearized KS Sigma Points:
    RMSE = 168708.34044059945 m, Min = 0.09336851939724511 m, Max = 727519.091193259 m
  Linearized KS Dynamics:
    RMSE = 491433.45774442446 m, Min = 0.48242796384079156 m, Max = 2.2737487992387973e6 m

Velocity uncertainty errors (vs Monte Carlo):
  Linearized Covariance Propagation (Cartesian):
    RMSE = 7.963930640087662 m/s, Min = 0.0004773769744157441 m/s, Max = 102.04634459140516 m/s
  Unscented Transform (Cartesian):
    RMSE = 10.78762904122194 m/s, Min = 0.00047737693485805366 m/s, Max = 139.63201880420092 m/s
  Eigen-based Sigma Points (Cartesian):
    RMSE = 2.4657786730580216 m/s, Min = 0.00047736669806042187 m/s, Max = 21.889205475799827 m/s
  Eigen-based Sigma Points (KS):
    RMSE = 2.4657781176776856 m/s, Min = 0.00047736669251285946 m/s, Max = 21.88920104423005 m/s
  Linearized KS Sigma Points:
    RMSE = 69.70715062875148 m/s, Min = 0.003775345897233162 m/s, Max = 440.50718917840595 m/s
  Linearized KS Dynamics:
    RMSE = 217.98245809914886 m/s, Min = 0.004824134035276595 m/s, Max = 1464.0410983834417 m/s

Generating plots...
  Saved plot to figs/test_error_propagation_comparison_orb2_pos1000m_orbits3.0.png

================================================================================
SCENARIO COMPLETE
================================================================================

--------------------------------------------------------------------------------
POSITION UNCERTAINTY SCENARIO: σ_pos = 10000.0 m
--------------------------------------------------------------------------------
  Position uncertainty: 10000.0 m (1-sigma)
  Velocity uncertainty: 8.321694852758494 m/s (1-sigma)

================================================================================
NUM ORBITS: 3.0
================================================================================

Propagation parameters:
  Orbital period: 43175.108298393 s (11.993085638442501 hours)
  Time step: 30.0 s
  Number of steps: 4318
  Total propagation time: 35.979256915327504 hours

================================================================================
1. MONTE CARLO (Ground Truth)
================================================================================
  Propagating 5000 Monte Carlo samples...
    Sample 1000 / 5000
    Sample 2000 / 5000
    Sample 3000 / 5000
    Sample 4000 / 5000
    Sample 5000 / 5000
  Completed: 4318 states

================================================================================
2. LINEARIZED COVARIANCE PROPAGATION (Cartesian Coordinates)
================================================================================
  Completed: 4318 states

================================================================================
3. UNSCENTED TRANSFORM (Cartesian Coordinates)
================================================================================
  Propagating 13 sigma points via Unscented Transform...
  Completed: 4318 states

